{
    "links": {
        "self": "http://www.neowsapp.com/rest/v1/neo/54088823?api_key=iIulBulltgU6a56xZRHN4H3l9WmuAYTsLGpBGhQ2"
    },
    "id": "54088823",
    "neo_reference_id": "54088823",
    "name": "(2020 WZ)",
    "designation": "2020 WZ",
    "nasa_jpl_url": "http://ssd.jpl.nasa.gov/sbdb.cgi?sstr=54088823",
    "absolute_magnitude_h": 26.827,
    "estimated_diameter": {
        "kilometers": {
            "estimated_diameter_min": 0.0114592179,
            "estimated_diameter_max": 0.0256235901
        },
        "meters": {
            "estimated_diameter_min": 11.4592178704,
            "estimated_diameter_max": 25.6235901273
        },
        "miles": {
            "estimated_diameter_min": 0.0071204257,
            "estimated_diameter_max": 0.0159217558
        },
        "feet": {
            "estimated_diameter_min": 37.5958603581,
            "estimated_diameter_max": 84.0668994332
        }
    },
    "is_potentially_hazardous_asteroid": false,
    "close_approach_data": [
        {
            "close_approach_date": "1987-09-14",
            "close_approach_date_full": "1987-Sep-14 11:00",
            "epoch_date_close_approach": 558615600000,
            "relative_velocity": {
                "kilometers_per_second": "16.478632037",
                "kilometers_per_hour": "59323.0753332738",
                "miles_per_hour": "36861.0520036112"
            },
            "miss_distance": {
                "astronomical": "0.3396667121",
                "lunar": "132.1303510069",
                "kilometers": "50813416.640063227",
                "miles": "31573992.9946254526"
            },
            "orbiting_body": "Earth"
        },
        {
            "close_approach_date": "2015-09-07",
            "close_approach_date_full": "2015-Sep-07 19:56",
            "epoch_date_close_approach": 1441655760000,
            "relative_velocity": {
                "kilometers_per_second": "20.077734961",
                "kilometers_per_hour": "72279.8458594394",
                "miles_per_hour": "44911.8853341611"
            },
            "miss_distance": {
                "astronomical": "0.4622033374",
                "lunar": "179.7970982486",
                "kilometers": "69144634.781931338",
                "miles": "42964483.7639069444"
            },
            "orbiting_body": "Earth"
        },
        {
            "close_approach_date": "2020-11-17",
            "close_approach_date_full": "2020-Nov-17 23:15",
            "epoch_date_close_approach": 1605654900000,
            "relative_velocity": {
                "kilometers_per_second": "6.2912375037",
                "kilometers_per_hour": "22648.4550132245",
                "miles_per_hour": "14072.8691719672"
            },
            "miss_distance": {
                "astronomical": "0.0271600255",
                "lunar": "10.5652499195",
                "kilometers": "4063081.963945685",
                "miles": "2524682.061333053"
            },
            "orbiting_body": "Earth"
        }
    ],
    "orbital_data": {
        "orbit_id": "7",
        "orbit_determination_date": "2020-11-25 05:21:41",
        "first_observation_date": "2020-11-17",
        "last_observation_date": "2020-11-25",
        "data_arc_in_days": 8,
        "observations_used": 70,
        "orbit_uncertainty": "7",
        "minimum_orbit_intersection": ".0166689",
        "jupiter_tisserand_invariant": "3.854",
        "epoch_osculation": "2459000.5",
        "eccentricity": ".4596847639856444",
        "semi_major_axis": "1.864135814678327",
        "inclination": "2.04527224497311",
        "ascending_node_longitude": "225.2915373038735",
        "orbital_period": "929.6398939748412",
        "perihelion_distance": "1.007220982670733",
        "perihelion_argument": "179.9957359847359",
        "aphelion_distance": "2.72105064668592",
        "perihelion_time": "2459163.146500089253",
        "mean_anomaly": "297.0156762724777",
        "mean_motion": ".387246720298067",
        "equinox": "J2000",
        "orbit_class": {
            "orbit_class_type": "APO",
            "orbit_class_description": "Near-Earth asteroid orbits which cross the Earth’s orbit similar to that of 1862 Apollo",
            "orbit_class_range": "a (semi-major axis) > 1.0 AU; q (perihelion) < 1.017 AU"
        }
    },
    "is_sentry_object": false
}